DUBAISAT-1              
1 35682U 09041B   26168.83522030  .00000579  00000+0  93239-4 0  9994
2 35682  98.0053 302.0857 0011642  71.9417 288.3060 14.75123420905199
OCEANSAT-2              
1 35931U 09051A   26168.91440411 -.00000147  00000+0 -75042-4 0  9998
2 35931  98.2324 155.6933 0015262 233.7497 126.2259 13.99664301879434
WORLDVIEW-2 (WV-2)      
1 35946U 09055A   26168.92924489  .00000088  00000+0  43635-4 0  9996
2 35946  98.4737 242.3686 0003750 205.4685 154.6318 14.37899610875751
SMOS                    
1 36036U 09059A   26168.53700676  .00000178  00000+0  70793-4 0  9993
2 36036  98.4424 355.8667 0001322  88.3589 271.7751 14.39772733873509
YAOGAN-7                
1 36110U 09069A   26168.63038349  .00000380  00000+0  59691-4 0  9998
2 36110  98.0071  54.4947 0025545  40.3572 319.9528 14.78010206889699
TANDEM-X                
1 36605U 10030A   26168.58693710  .00000287  00000+0  16858-4 0  9994
2 36605  97.4451 176.2891 0001888  87.7615 272.3836 15.19150445886700
CARTOSAT-2B             
1 36795U 10035A   26168.94871653  .00000304  00000+0  48580-4 0  9990
2 36795  97.9950 219.4934 0011212 181.2715 178.8470 14.78660482859963
YAOGAN-10               
1 36834U 10038A   26168.96286418  .00001098  00000+0  13398-3 0  9997
2 36834  97.8968 192.3605 0001658  87.4282   2.5992 14.85349572857320
COSMO-SKYMED 4          
1 37216U 10060A   26168.91632966  .00000156  00000+0  26188-4 0  9991
2 37216  97.8879 352.5050 0001392  80.8684 279.2686 14.82153110844673
RESOURCESAT-2           
1 37387U 11015A   26168.93360003  .00000096  00000+0  63921-4 0  9992
2 37387  98.7644 236.3703 0010223 253.1225 106.8831 14.21606731786289
HAIYANG-2A              
1 37781U 11043A   26168.98477606 -.00000140  00000+0 -10195-3 0  9990
2 37781  99.3387 171.6432 0005831  90.7327 269.4491 13.74349868746764
RASAT                   
1 37791U 11044D   26168.93896731  .00000404  00000+0  78529-4 0  9998
2 37791  98.0581 260.3241 0020210 186.3551 297.6093 14.68166790793296
SRMSAT                  
1 37841U 11058D   26168.92892368  .00000356  00000+0  49102-4 0  9991
2 37841  19.9725  54.9771 0011772 211.7951 216.6282 14.11575698757929
PLEIADES 1A             
1 38012U 11076F   26168.95863627  .00000166  00000+0  45518-4 0  9997
2 38012  98.1979 244.0511 0001649  93.3394  19.7688 14.58571063772103
ZIYUAN 1-02C (ZY 1-02C) 
1 38038U 11079A   26168.98805756  .00000178  00000+0  72668-4 0  9999
2 38038  98.4073 236.2797 0005469 314.1444 149.4598 14.38214748759324
ARIRANG-3 (KOMPSAT-3)   
1 38338U 12025B   26168.92230808  .00000343  00000+0  77348-4 0  9992
2 38338  98.1171 126.3696 0006694 107.5282 252.6651 14.62206765751455
EXACTVIEW-1 (ADS-1B)    
1 38709U 12039C   26168.87274923  .00000087  00000+0  57160-4 0  9994
2 38709  98.9779 286.2784 0011205 164.4535 195.6989 14.24984742722803
SPOT 6                  
1 38755U 12047A   26168.95244301  .00000025  00000+0  15251-4 0  9997
2 38755  98.2121 236.2524 0001518  91.5968 268.5405 14.58562613733161
PLEIADES 1B             
1 39019U 12068A   26168.97136287  .00000082  00000+0  27413-4 0  9995
2 39019  98.1950 244.0121 0001684  91.0225 269.1167 14.58560358720969
GOKTURK 2               
1 39030U 12073A   26168.89455000  .00000302  00000+0  51236-4 0  9997
2 39030  97.6811   6.2904 0001582  55.3723 304.7636 14.75543163724619
LANDSAT 8               
1 39084U 13008A   26168.91744827  .00000262  00000+0  68264-4 0  9990
2 39084  98.2302 239.0441 0001360  93.5862 266.5492 14.57094997698008
SARAL                   
1 39086U 13009A   26168.94871124  .00000065  00000+0  40038-4 0  9997
2 39086  98.5557 355.5062 0000683 303.9623  56.1497 14.32856147695717
GAOFEN-1                
1 39150U 13018A   26168.94398090 -.00000068  00000+0 -24003-5 0  9995
2 39150  97.9097 240.9963 0015685 263.8797  96.0626 14.76535421708351
VNREDSAT 1              
1 39160U 13021B   26168.97700803  .00000266  00000+0  58349-4 0  9999
2 39160  97.9077 222.3632 0001739  87.9366 272.2037 14.64856885700408
ARIRANG-5 (KOMPSAT-5)   
1 39227U 13042A   26168.96421405  .00000917  00000+0  69840-4 0  9994
2 39227  97.6200 355.6539 0005398 117.9393 242.2380 15.04494772703973
SKYSAT-A                
1 39418U 13066C   26168.72028794  .00001981  00000+0  11543-3 0  9998
2 39418  97.3812 218.1006 0020061 315.5652  44.3969 15.12978299688562
DUBAISAT-2              
1 39419U 13066D   26168.93216384  .00002763  00000+0  17280-3 0  9999
2 39419  97.4558 159.0564 0012175  38.0829 322.1259 15.10184205686508
GPM-CORE                
1 39574U 14009C   26168.92165200  .00009792  00000+0  21414-3 0  9991
2 39574  64.9726 305.6666 0011816 251.7807 108.2047 15.44585619697926
SENTINEL-1A             
1 39634U 14016A   26168.98463772  .00000030  00000+0  16113-4 0  9994
2 39634  98.1772 176.5056 0001424  79.0182 281.1178 14.59198641650130
KAZEOSAT 1              
1 39731U 14024A   26168.92369411  .00000065  00000+0  32918-4 0  9999
2 39731  98.3208 241.3526 0001359  73.5514 286.5825 14.42080016638662
