OBJECT_NAME,OBJECT_ID,EPOCH,MEAN_MOTION,ECCENTRICITY,INCLINATION,RA_OF_ASC_NODE,ARG_OF_PERICENTER,MEAN_ANOMALY,EPHEMERIS_TYPE,CLASSIFICATION_TYPE,NORAD_CAT_ID,ELEMENT_SET_NO,REV_AT_EPOCH,BSTAR,MEAN_MOTION_DOT,MEAN_MOTION_DDOT
DUBAISAT-1,2009-041B,2026-06-17T20:02:43.033920,14.75123420,.00116423,98.0053,302.0857,71.9417,288.3060,0,U,35682,999,90519,.93239013E-4,.579E-5,0
OCEANSAT-2,2009-051A,2026-06-17T21:56:44.515104,13.99664301,.0015262,98.2324,155.6933,233.7497,126.2259,0,U,35931,999,87943,-.75041544E-4,-.147E-5,0
WORLDVIEW-2 (WV-2),2009-055A,2026-06-17T22:18:06.758496,14.37899610,.00037508,98.4737,242.3686,205.4685,154.6318,0,U,35946,999,87575,.4363521E-4,.88E-6,0
SMOS,2009-059A,2026-06-17T12:53:17.384064,14.39772733,.0001322,98.4424,355.8667,88.3589,271.7751,0,U,36036,999,87350,.70793E-4,.178E-5,0
YAOGAN-7,2009-069A,2026-06-17T15:07:45.133536,14.78010206,.00255453,98.0071,54.4947,40.3572,319.9528,0,U,36110,999,88969,.59690757E-4,.38E-5,0
TANDEM-X,2010-030A,2026-06-17T14:05:11.365440,15.19150445,.00018883,97.4451,176.2891,87.7615,272.3836,0,U,36605,999,88670,.16858258E-4,.287E-5,0
CARTOSAT-2B,2010-035A,2026-06-17T22:46:09.108192,14.78660482,.00112128,97.9950,219.4934,181.2715,178.8470,0,U,36795,999,85996,.48580203E-4,.304E-5,0
YAOGAN-10,2010-038A,2026-06-17T23:06:31.465152,14.85349572,.00016582,97.8968,192.3605,87.4282,2.5992,0,U,36834,999,85732,.13397557E-3,.1098E-4,0
COSMO-SKYMED 4,2010-060A,2026-06-17T21:59:30.882624,14.82153110,.00013923,97.8879,352.5050,80.8684,279.2686,0,U,37216,999,84467,.26187871E-4,.156E-5,0
RESOURCESAT-2,2011-015A,2026-06-17T22:24:23.042592,14.21606731,.00102236,98.7644,236.3703,253.1225,106.8831,0,U,37387,999,78628,.63920949E-4,.96E-6,0
HAIYANG-2A,2011-043A,2026-06-17T23:38:04.651584,13.74349868,.00058318,99.3387,171.6432,90.7327,269.4491,0,U,37781,999,74676,-.10195459E-3,-.14E-5,0
RASAT,2011-044D,2026-06-17T22:32:06.775584,14.68166790,.00202103,98.0581,260.3241,186.3551,297.6093,0,U,37791,999,79329,.785289E-4,.404E-5,0
SRMSAT,2011-058D,2026-06-17T22:17:39.005952,14.11575698,.00117724,19.9725,54.9771,211.7951,216.6282,0,U,37841,999,75792,.49101693E-4,.356E-5,0
PLEIADES 1A,2011-076F,2026-06-17T23:00:26.173728,14.58571063,.00016497,98.1979,244.0511,93.3394,19.7688,0,U,38012,999,77210,.45517574E-4,.166E-5,0
ZIYUAN 1-02C (ZY 1-02C),2011-079A,2026-06-17T23:42:48.173184,14.38214748,.00054691,98.4073,236.2797,314.1444,149.4598,0,U,38038,999,75932,.72667995E-4,.178E-5,0
ARIRANG-3 (KOMPSAT-3),2012-025B,2026-06-17T22:08:07.418112,14.62206765,.00066946,98.1171,126.3696,107.5282,252.6651,0,U,38338,999,75145,.7734772E-4,.343E-5,0
EXACTVIEW-1 (ADS-1B),2012-039C,2026-06-17T20:56:45.533472,14.24984742,.00112051,98.9779,286.2784,164.4535,195.6989,0,U,38709,999,72280,.57160358E-4,.87E-6,0
SPOT 6,2012-047A,2026-06-17T22:51:31.076064,14.58562613,.00015186,98.2121,236.2524,91.5968,268.5405,0,U,38755,999,73316,.1525141E-4,.25E-6,0
PLEIADES 1B,2012-068A,2026-06-17T23:18:45.751968,14.58560358,.00016841,98.1950,244.0121,91.0225,269.1167,0,U,39019,999,72096,.27413106E-4,.82E-6,0
GOKTURK 2,2012-073A,2026-06-17T21:28:09.120000,14.75543163,.00015821,97.6811,6.2904,55.3723,304.7636,0,U,39030,999,72461,.51235557E-4,.302E-5,0
LANDSAT 8,2013-008A,2026-06-17T22:01:07.530528,14.57094997,.00013603,98.2302,239.0441,93.5862,266.5492,0,U,39084,999,69800,.68263728E-4,.262E-5,0
SARAL,2013-009A,2026-06-17T22:46:08.651136,14.32856147,.00006833,98.5557,355.5062,303.9623,56.1497,0,U,39086,999,69571,.40037995E-4,.65E-6,0
GAOFEN-1,2013-018A,2026-06-17T22:39:19.949760,14.76535421,.00156857,97.9097,240.9963,263.8797,96.0626,0,U,39150,999,70835,-.2400287E-5,-.68E-6,0
VNREDSAT 1,2013-021B,2026-06-17T23:26:53.493792,14.64856885,.00017395,97.9077,222.3632,87.9366,272.2037,0,U,39160,999,70040,.58349308E-4,.266E-5,0
ARIRANG-5 (KOMPSAT-5),2013-042A,2026-06-17T23:08:28.093920,15.04494772,.00053988,97.6200,355.6539,117.9393,242.2380,0,U,39227,999,70397,.6983967E-4,.917E-5,0
SKYSAT-A,2013-066C,2026-06-17T17:17:12.878016,15.12978299,.0020061,97.3812,218.1006,315.5652,44.3969,0,U,39418,999,68856,.11542689E-3,.1981E-4,0
DUBAISAT-2,2013-066D,2026-06-17T22:22:18.955776,15.10184205,.00121759,97.4558,159.0564,38.0829,322.1259,0,U,39419,999,68650,.17279656E-3,.2763E-4,0
GPM-CORE,2014-009C,2026-06-17T22:07:10.732800,15.44585619,.00118161,64.9726,305.6666,251.7807,108.2047,0,U,39574,999,69792,.21413734E-3,.9792E-4,0
SENTINEL-1A,2014-016A,2026-06-17T23:37:52.699008,14.59198641,.00014246,98.1772,176.5056,79.0182,281.1178,0,U,39634,999,65013,.16112697E-4,.3E-6,0
KAZEOSAT 1,2014-024A,2026-06-17T22:10:07.171104,14.42080016,.00013595,98.3208,241.3526,73.5514,286.5825,0,U,39731,999,63866,.32917684E-4,.65E-6,0
